[{"OBJECT_NAME":"STARLINK-4605","OBJECT_ID":"2022-104AE","EPOCH":"2026-03-09T18:01:28.826976","MEAN_MOTION":15.0883295,"ECCENTRICITY":0.00011851,"INCLINATION":53.2171,"RA_OF_ASC_NODE":223.7215,"ARG_OF_PERICENTER":77.6786,"MEAN_ANOMALY":282.4339,"EPHEMERIS_TYPE":0,"CLASSIFICATION_TYPE":"U","NORAD_CAT_ID":53616,"ELEMENT_SET_NO":999,"REV_AT_EPOCH":19589,"BSTAR":0.00017685834,"MEAN_MOTION_DOT":2.527e-5,"MEAN_MOTION_DDOT":0},{"OBJECT_NAME":"PSLV R\/B","OBJECT_ID":"2010-035F","EPOCH":"2026-03-09T21:32:02.806944","MEAN_MOTION":15.11637156,"ECCENTRICITY":0.00120112,"INCLINATION":97.9796,"RA_OF_ASC_NODE":355.2302,"ARG_OF_PERICENTER":197.9598,"MEAN_ANOMALY":162.1208,"EPHEMERIS_TYPE":0,"CLASSIFICATION_TYPE":"U","NORAD_CAT_ID":36800,"ELEMENT_SET_NO":999,"REV_AT_EPOCH":85407,"BSTAR":0.00037264097,"MEAN_MOTION_DOT":6.275e-5,"MEAN_MOTION_DDOT":0}]
